GPS BIIR-2  (PRN 13)    
1 24876U 97035A   21332.93318567  .00000122  00000+0  00000+0 0  9997
2 24876  55.4864 163.4965 0055397  54.6874 305.8896  2.00562881178634
GPS BIIR-4  (PRN 20)    
1 26360U 00025A   21333.36626185 -.00000004  00000+0  00000+0 0  9996
2 26360  53.8999  87.1453 0054404 177.0052 223.3319  2.00560582157968
GPS BIIR-8  (PRN 16)    
1 27663U 03005A   21333.57694990 -.00000028  00000+0  00000+0 0  9992
2 27663  55.6541 280.9957 0122722  38.4148 130.6932  2.00576302137994
GPS BIIR-9  (PRN 21)    
1 27704U 03010A   21333.59520192 -.00000070  00000+0  00000+0 0  9995
2 27704  54.9405  31.4094 0245305 299.4875 102.2415  2.00570809136795
GPS BIIR-10 (PRN 22)    
1 28129U 03058A   21333.12377583  .00000003  00000+0  00000+0 0  9997
2 28129  53.7113  89.7872 0069373 308.6731  50.6985  2.00563424131476
GPS BIIR-11 (PRN 19)    
1 28190U 04009A   21333.35358234 -.00000041  00000+0  00000+0 0  9992
2 28190  56.1128 341.9304 0087153 114.0918  56.0419  2.00564655129636
GPS BIIR-13 (PRN 02)    
1 28474U 04045A   21333.43791375 -.00000070  00000+0  00000+0 0  9995
2 28474  55.2715  31.4806 0207992 275.4857 223.7925  2.00548592125127
GPS BIIRM-1 (PRN 17)    
1 28874U 05038A   21333.35051883 -.00000039  00000+0  00000+0 0  9991
2 28874  56.1880 339.3545 0139819 272.2879 278.4575  2.00559727118521
GPS BIIRM-2 (PRN 31)    
1 29486U 06042A   21333.53355664  .00000048  00000+0  00000+0 0  9990
2 29486  54.7407 217.2290 0103230  18.3118 220.6354  2.00565849111231
GPS BIIRM-3 (PRN 12)    
1 29601U 06052A   21333.15226261 -.00000026  00000+0  00000+0 0  9995
2 29601  55.6552 279.9430 0081825  69.8870 290.9915  2.00566897110093
GPS BIIRM-4 (PRN 15)    
1 32260U 07047A   21333.45580337  .00000115  00000+0  00000+0 0  9993
2 32260  53.2655 148.8321 0137037  60.1658 301.2264  2.00559054103502
GPS BIIRM-5 (PRN 29)    
1 32384U 07062A   21333.55049347 -.00000040  00000+0  00000+0 0  9997
2 32384  56.3005 340.0823 0016709 141.9158  59.0397  2.00578494102266
GPS BIIRM-6 (PRN 07)    
1 32711U 08012A   21332.87640020  .00000044  00000+0  00000+0 0  9999
2 32711  54.4966 216.2362 0154895 228.7650 129.9695  2.00557887100435
GPS BIIRM-8 (PRN 05)    
1 35752U 09043A   21333.43754237  .00000012  00000+0  00000+0 0  9996
2 35752  54.9232  93.5926 0057800  57.1479   4.4364  2.00569252 90052
GPS BIIF-1  (PRN 25)    
1 36585U 10022A   21333.44071622 -.00000026  00000+0  00000+0 0  9997
2 36585  54.9332 275.5900 0099233  54.4331 128.2258  2.00554872 84282
GPS BIIF-2  (PRN 01)    
1 37753U 11036A   21333.53192241 -.00000068  00000+0  00000+0 0  9998
2 37753  56.5079  36.4982 0109289  50.0172 281.5510  2.00564053 75969
GPS BIIF-3  (PRN 24)    
1 38833U 12053A   21333.05611430  .00000054  00000+0  00000+0 0  9995
2 38833  53.5487 211.5647 0119012  44.1509 316.8772  2.00559560 66123
GPS BIIF-4  (PRN 27)    
1 39166U 13023A   21332.91783373 -.00000038  00000+0  00000+0 0  9996
2 39166  55.8241 335.8226 0096138  34.7040 325.9532  2.00566966 62564
GPS BIIF-5  (PRN 30)    
1 39533U 14008A   21332.91611895  .00000042  00000+0  00000+0 0  9991
2 39533  53.6475 217.0563 0054316 204.7232 155.0940  2.00570054 56365
GPS BIIF-6  (PRN 06)    
1 39741U 14026A   21333.19355550 -.00000068  00000+0  00000+0 0  9995
2 39741  56.4733  36.0381 0026497 297.9642  61.8189  2.00570002 55225
GPS BIIF-7  (PRN 09)    
1 40105U 14045A   21333.28651865  .00000122  00000+0  00000+0 0  9990
2 40105  54.6525 154.7968 0021466 106.6817 253.6005  2.00564180 52764
GPS BIIF-8  (PRN 03)    
1 40294U 14068A   21333.15745115  .00000020  00000+0  00000+0 0  9999
2 40294  55.6687  95.8582 0036803  55.3545 304.9789  2.00557361 51894
GPS BIIF-9  (PRN 26)    
1 40534U 15013A   21333.29077981 -.00000026  00000+0  00000+0 0  9998
2 40534  53.8368 272.9870 0064610  16.2798 343.9309  2.00564623 48513
GPS BIIF-10 (PRN 08)    
1 40730U 15033A   21332.95361948 -.00000038  00000+0  00000+0 0  9992
2 40730  55.3277 334.7450 0068414   1.3431 358.7061  2.00562355 46677
GPS BIIF-11 (PRN 10)    
1 41019U 15062A   21333.50270463  .00000017  00000+0  00000+0 0  9994
2 41019  55.6599  95.6832 0073882 214.4448 145.0624  2.00563085 44520
GPS BIIF-12 (PRN 32)    
1 41328U 16007A   21333.09800313  .00000122  00000+0  00000+0 0  9991
2 41328  54.8752 155.4262 0053902 224.8419 134.7681  2.00554907 42564
GPS BIII-1  (PRN 04)    
1 43873U 18109A   21333.49702147  .00000124  00000+0  00000+0 0  9995
2 43873  55.0557 157.7869 0015658 188.6636 353.2642  2.00563318 21769
GPS BIII-2  (PRN 18)    
1 44506U 19056A   21333.52686803 -.00000069  00000+0  00000+0 0  9994
2 44506  55.5778  37.0132 0020801 182.2175 283.2057  2.00567897 16762
GPS BIII-3  (PRN 23)    
1 45854U 20041A   21333.52741067  .00000013  00000+0  00000+0 0  9999
2 45854  55.3753  94.2817 0018397 168.3650 238.8610  2.00561736 10733
GPS BIII-4  (PRN 14)    
1 46826U 20078A   21333.50509193 -.00000028  00000+0  00000+0 0  9996
2 46826  54.7058 278.2068 0012146 188.6053 172.8097  2.00566842  8202
